{
    "argument_of_periapsis": -73.63065768,
    "ascending_node_longitude": 49.71320984,
    "direction": "CW",
    "eccentricity": 0.0935,
    "inclination": 1.85181869,
    "mass": 4.4185E23,
    "name": "mars",
    "parent": "sun",
    "semimajor": 227939100E3,
    "start": "periapsis"
}
